start=new Date('2021-10-13T00:00:00.000Z').valueOf();
sats=[{"LAUNCH_DATE":"2021-05-26","DECAY_DATE":null,"OBJECT_NAME":"STARLINK-2742","ELEMENT_SET_NO":"999","PERIAPSIS":"390.814","TLE_LINE2":"2 48688  53.0405  93.1647 0001437  53.8478 185.4415 15.58573463  3708","CLASSIFICATION_TYPE":"U","GP_ID":"187016724","REF_FRAME":"TEME","COUNTRY_CODE":"US","SEMIMAJOR_AXIS":"6769.922","MEAN_MOTION":"15.58573463","APOAPSIS":"392.760","MEAN_MOTION_DDOT":"0.0000000000000","ECCENTRICITY":"0.00014370","RCS_SIZE":"LARGE","PERIOD":"92.392","FILE":"3159338","EPHEMERIS_TYPE":"0","TLE_LINE1":"1 48688U 21044BC  21286.00001157 -.00953039  00000-0 -13504-1 0  9993","MEAN_MOTION_DOT":"-0.00953039","RA_OF_ASC_NODE":"93.1647","MEAN_ELEMENT_THEORY":"SGP4","TIME_SYSTEM":"UTC","EPOCH":"2021-10-13T00:00:00.999648","BSTAR":"-0.01350400000000","ARG_OF_PERICENTER":"53.8478","INCLINATION":"53.0405","OBJECT_ID":"2021-044BC","CENTER_NAME":"EARTH","REV_AT_EPOCH":"370","MEAN_ANOMALY":"185.4415","SITE":"AFETR","OBJECT_TYPE":"PAYLOAD","NORAD_CAT_ID":"48688"},{"FILE":"3159338","PERIOD":"93.422","RCS_SIZE":"LARGE","MEAN_MOTION_DDOT":"0.0000000000000","ECCENTRICITY":"0.00014240","APOAPSIS":"442.973","SEMIMAJOR_AXIS":"6820.137","MEAN_MOTION":"15.41392103","COUNTRY_CODE":"US","GP_ID":"187017028","REF_FRAME":"TEME","TLE_LINE2":"2 48689  53.0405  94.5641 0001424  63.2025 161.1952 15.41392103  3694","CLASSIFICATION_TYPE":"U","PERIAPSIS":"441.031","ELEMENT_SET_NO":"999","OBJECT_NAME":"STARLINK-2617","DECAY_DATE":null,"LAUNCH_DATE":"2021-05-26","NORAD_CAT_ID":"48689","OBJECT_TYPE":"PAYLOAD","SITE":"AFETR","REV_AT_EPOCH":"369","MEAN_ANOMALY":"161.1952","CENTER_NAME":"EARTH","OBJECT_ID":"2021-044BD","INCLINATION":"53.0405","ARG_OF_PERICENTER":"63.2025","EPOCH":"2021-10-13T00:00:00.999648","BSTAR":"-0.02429100000000","TIME_SYSTEM":"UTC","MEAN_ELEMENT_THEORY":"SGP4","RA_OF_ASC_NODE":"94.5641","MEAN_MOTION_DOT":"-0.00943877","TLE_LINE1":"1 48689U 21044BD  21286.00001157 -.00943877  00000-0 -24291-1 0  9998","EPHEMERIS_TYPE":"0"},{"MEAN_MOTION_DDOT":"0.0000000000000","ECCENTRICITY":"0.00015340","PERIOD":"95.593","RCS_SIZE":"LARGE","FILE":"3159338","MEAN_MOTION":"15.06386484","SEMIMAJOR_AXIS":"6925.390","APOAPSIS":"548.317","TLE_LINE2":"2 48690  53.0523 103.3004 0001534  53.2347  30.6302 15.06386484  3603","PERIAPSIS":"546.193","CLASSIFICATION_TYPE":"U","REF_FRAME":"TEME","GP_ID":"187016831","COUNTRY_CODE":"US","DECAY_DATE":null,"LAUNCH_DATE":"2021-05-26","OBJECT_NAME":"STARLINK-2740","ELEMENT_SET_NO":"999","OBJECT_TYPE":"PAYLOAD","NORAD_CAT_ID":"48690","REV_AT_EPOCH":"360","MEAN_ANOMALY":"30.6302","SITE":"AFETR","ARG_OF_PERICENTER":"53.2347","OBJECT_ID":"2021-044BE","INCLINATION":"53.0523","CENTER_NAME":"EARTH","MEAN_MOTION_DOT":"0.00029434","TLE_LINE1":"1 48690U 21044BE  21286.00001157  .00029434  00000-0  19874-2 0  9994","EPHEMERIS_TYPE":"0","MEAN_ELEMENT_THEORY":"SGP4","RA_OF_ASC_NODE":"103.3004","TIME_SYSTEM":"UTC","BSTAR":"0.00198740000000","EPOCH":"2021-10-13T00:00:00.999648"},{"REV_AT_EPOCH":"363","MEAN_ANOMALY":"9.7173","SITE":"AFETR","OBJECT_TYPE":"PAYLOAD","NORAD_CAT_ID":"48691","TIME_SYSTEM":"UTC","BSTAR":"-0.04923700000000","EPOCH":"2021-10-13T00:00:00.999648","EPHEMERIS_TYPE":"0","MEAN_MOTION_DOT":"-0.00908586","TLE_LINE1":"1 48691U 21044BF  21286.00001157 -.00908586  00000-0 -49237-1 0  9996","RA_OF_ASC_NODE":"98.4867","MEAN_ELEMENT_THEORY":"SGP4","INCLINATION":"53.0439","OBJECT_ID":"2021-044BF","CENTER_NAME":"EARTH","ARG_OF_PERICENTER":"86.9129","APOAPSIS":"516.319","SEMIMAJOR_AXIS":"6893.544","MEAN_MOTION":"15.16837154","FILE":"3159338","MEAN_MOTION_DDOT":"0.0000000000000","ECCENTRICITY":"0.00013200","RCS_SIZE":"LARGE","PERIOD":"94.934","ELEMENT_SET_NO":"999","LAUNCH_DATE":"2021-05-26","DECAY_DATE":null,"OBJECT_NAME":"STARLINK-2750","COUNTRY_CODE":"US","PERIAPSIS":"514.499","TLE_LINE2":"2 48691  53.0439  98.4867 0001320  86.9129   9.7173 15.16837154  3637","CLASSIFICATION_TYPE":"U","GP_ID":"187016617","REF_FRAME":"TEME"},{"OBJECT_NAME":"STARLINK-2752","LAUNCH_DATE":"2021-05-26","DECAY_DATE":null,"ELEMENT_SET_NO":"999","GP_ID":"187016387","REF_FRAME":"TEME","TLE_LINE2":"2 48692  53.0507  98.5429 0001438  68.8873 177.8537 15.18319132  3649","CLASSIFICATION_TYPE":"U","PERIAPSIS":"509.932","COUNTRY_CODE":"US","SEMIMAJOR_AXIS":"6889.057","MEAN_MOTION":"15.18319132","APOAPSIS":"511.913","RCS_SIZE":"LARGE","PERIOD":"94.842","ECCENTRICITY":"0.00014380","MEAN_MOTION_DDOT":"0.0000000000000","FILE":"3159338","RA_OF_ASC_NODE":"98.5429","MEAN_ELEMENT_THEORY":"SGP4","EPHEMERIS_TYPE":"0","MEAN_MOTION_DOT":"-0.00925033","TLE_LINE1":"1 48692U 21044BG  21286.00001157 -.00925033  00000-0 -48094-1 0  9993","EPOCH":"2021-10-13T00:00:00.999648","BSTAR":"-0.04809400000000","TIME_SYSTEM":"UTC","ARG_OF_PERICENTER":"68.8873","CENTER_NAME":"EARTH","INCLINATION":"53.0507","OBJECT_ID":"2021-044BG","SITE":"AFETR","MEAN_ANOMALY":"177.8537","REV_AT_EPOCH":"364","NORAD_CAT_ID":"48692","OBJECT_TYPE":"PAYLOAD"},{"BSTAR":"0.00171420000000","EPOCH":"2021-10-13T00:00:00.999648","TIME_SYSTEM":"UTC","MEAN_ELEMENT_THEORY":"SGP4","RA_OF_ASC_NODE":"103.2929","MEAN_MOTION_DOT":"0.00025326","TLE_LINE1":"1 48693U 21044BH  21286.00001157  .00025326  00000-0  17142-2 0  9999","EPHEMERIS_TYPE":"0","CENTER_NAME":"EARTH","OBJECT_ID":"2021-044BH","INCLINATION":"53.0521","ARG_OF_PERICENTER":"77.6773","SITE":"AFETR","REV_AT_EPOCH":"360","MEAN_ANOMALY":"191.3470","NORAD_CAT_ID":"48693","OBJECT_TYPE":"PAYLOAD","ELEMENT_SET_NO":"999","OBJECT_NAME":"STARLINK-2618","DECAY_DATE":null,"LAUNCH_DATE":"2021-05-26","COUNTRY_CODE":"US","REF_FRAME":"TEME","GP_ID":"187016940","PERIAPSIS":"546.266","TLE_LINE2":"2 48693  53.0521 103.2929 0001481  77.6773 191.3470 15.06374597  3606","CLASSIFICATION_TYPE":"U","APOAPSIS":"548.317","MEAN_MOTION":"15.06374597","SEMIMAJOR_AXIS":"6925.426","FILE":"3159338","PERIOD":"95.594","RCS_SIZE":"LARGE","ECCENTRICITY":"0.00014810","MEAN_MOTION_DDOT":"0.0000000000000"},{"ELEMENT_SET_NO":"999","OBJECT_NAME":"STARLINK-2748","LAUNCH_DATE":"2021-05-26","DECAY_DATE":null,"COUNTRY_CODE":"US","GP_ID":"187016494","REF_FRAME":"TEME","TLE_LINE2":"2 48694  53.0516 108.3089 0001600  78.7259 357.6704 15.06372054  3599","PERIAPSIS":"546.191","CLASSIFICATION_TYPE":"U","APOAPSIS":"548.407","SEMIMAJOR_AXIS":"6925.434","MEAN_MOTION":"15.06372054","FILE":"3159338","RCS_SIZE":"LARGE","PERIOD":"95.594","MEAN_MOTION_DDOT":"0.0000000000000","ECCENTRICITY":"0.00016000","BSTAR":"0.00244640000000","EPOCH":"2021-10-13T00:00:00.999648","TIME_SYSTEM":"UTC","RA_OF_ASC_NODE":"108.3089","MEAN_ELEMENT_THEORY":"SGP4","EPHEMERIS_TYPE":"0","MEAN_MOTION_DOT":"0.00036319","TLE_LINE1":"1 48694U 21044BJ  21286.00001157  .00036319  00000-0  24464-2 0  9999","CENTER_NAME":"EARTH","INCLINATION":"53.0516","OBJECT_ID":"2021-044BJ","ARG_OF_PERICENTER":"78.7259","SITE":"AFETR","REV_AT_EPOCH":"359","MEAN_ANOMALY":"357.6704","NORAD_CAT_ID":"48694","OBJECT_TYPE":"PAYLOAD"},{"FILE":"3159338","ECCENTRICITY":"0.00015160","MEAN_MOTION_DDOT":"0.0000000000000","RCS_SIZE":"LARGE","PERIOD":"95.594","APOAPSIS":"548.339","SEMIMAJOR_AXIS":"6925.424","MEAN_MOTION":"15.06375241","COUNTRY_CODE":"US","CLASSIFICATION_TYPE":"U","TLE_LINE2":"2 48695  53.0539 108.2946 0001516  70.2442 271.2725 15.06375241  3598","PERIAPSIS":"546.240","GP_ID":"187016280","REF_FRAME":"TEME","ELEMENT_SET_NO":"999","LAUNCH_DATE":"2021-05-26","DECAY_DATE":null,"OBJECT_NAME":"STARLINK-2616","OBJECT_TYPE":"PAYLOAD","NORAD_CAT_ID":"48695","MEAN_ANOMALY":"271.2725","REV_AT_EPOCH":"359","SITE":"AFETR","INCLINATION":"53.0539","OBJECT_ID":"2021-044BK","CENTER_NAME":"EARTH","ARG_OF_PERICENTER":"70.2442","TIME_SYSTEM":"UTC","BSTAR":"0.00211300000000","EPOCH":"2021-10-13T00:00:00.999648","EPHEMERIS_TYPE":"0","MEAN_MOTION_DOT":"0.00031311","TLE_LINE1":"1 48695U 21044BK  21286.00001157  .00031311  00000-0  21130-2 0  9994","RA_OF_ASC_NODE":"108.2946","MEAN_ELEMENT_THEORY":"SGP4"},{"OBJECT_TYPE":"PAYLOAD","NORAD_CAT_ID":"48696","REV_AT_EPOCH":"2164","MEAN_ANOMALY":"285.5211","SITE":"AFETR","ARG_OF_PERICENTER":"74.5980","INCLINATION":"53.0659","OBJECT_ID":"2021-044BL","CENTER_NAME":"EARTH","EPHEMERIS_TYPE":"0","MEAN_MOTION_DOT":"0.00001478","TLE_LINE1":"1 48696U 21044BL  21285.86110061  .00001478  00000-0  11812-3 0  9991","RA_OF_ASC_NODE":"113.8655","MEAN_ELEMENT_THEORY":"SGP4","TIME_SYSTEM":"UTC","EPOCH":"2021-10-12T20:39:59.092704","BSTAR":"0.00011812000000","MEAN_MOTION_DDOT":"0.0000000000000","ECCENTRICITY":"0.00018340","RCS_SIZE":"LARGE","PERIOD":"95.593","FILE":"3159338","MEAN_MOTION":"15.06393356","SEMIMAJOR_AXIS":"6925.369","APOAPSIS":"548.504","TLE_LINE2":"2 48696  53.0659 113.8655 0001834  74.5980 285.5211 15.06393356 21649","CLASSIFICATION_TYPE":"U","PERIAPSIS":"545.964","GP_ID":"187016725","REF_FRAME":"TEME","COUNTRY_CODE":"US","LAUNCH_DATE":"2021-05-26","DECAY_DATE":null,"OBJECT_NAME":"STARLINK-2753","ELEMENT_SET_NO":"999"},{"OBJECT_TYPE":"PAYLOAD","NORAD_CAT_ID":"48697","MEAN_ANOMALY":"280.5983","REV_AT_EPOCH":"2161","SITE":"AFETR","INCLINATION":"53.0553","OBJECT_ID":"2021-044BM","CENTER_NAME":"EARTH","ARG_OF_PERICENTER":"79.5288","TIME_SYSTEM":"UTC","BSTAR":"-0.00004964500000","EPOCH":"2021-10-12T16:41:06.060192","EPHEMERIS_TYPE":"0","TLE_LINE1":"1 48697U 21044BM  21285.69520903 -.00001021  00000-0 -49645-4 0  9995","MEAN_MOTION_DOT":"-0.00001021","RA_OF_ASC_NODE":"114.6642","MEAN_ELEMENT_THEORY":"SGP4","FILE":"3159338","MEAN_MOTION_DDOT":"0.0000000000000","ECCENTRICITY":"0.00025010","RCS_SIZE":"LARGE","PERIOD":"95.592","APOAPSIS":"548.937","MEAN_MOTION":"15.06402922","SEMIMAJOR_AXIS":"6925.340","COUNTRY_CODE":"US","CLASSIFICATION_TYPE":"U","TLE_LINE2":"2 48697  53.0553 114.6642 0002501  79.5288 280.5983 15.06402922 21614","PERIAPSIS":"545.473","GP_ID":"187017029","REF_FRAME":"TEME","ELEMENT_SET_NO":"999","LAUNCH_DATE":"2021-05-26","DECAY_DATE":null,"OBJECT_NAME":"STARLINK-2715"}];
